GLOBALSTAR M057         
1 25943U 99058A   24305.85919176 -.00000090  00000+0  25145-4 0  9994
2 25943  51.9983 276.1857 0002108 280.2846  79.7766 12.24802000138954
GLOBALSTAR M059         
1 25944U 99058B   24305.87749049 -.00000062  00000+0  30068-3 0  9995
2 25944  51.9997 104.8169 0000992 115.1479  35.9279 11.99968144546634
GLOBALSTAR M056         
1 25945U 99058C   24305.87408317 -.00000006  00000+0  94786-3 0  9991
2 25945  51.9940 112.6459 0001999  93.2702  52.4492 12.04778016135106
GLOBALSTAR M031         
1 25946U 99058D   24305.32209168 -.00000079  00000+0  12030-3 0  9997
2 25946  51.9993  20.1871 0001766  85.3676 306.8345 12.16021381136709
GLOBALSTAR M039         
1 25961U 99062A   24305.88695838 -.00000066  00000+0  21000-3 0  9996
2 25961  51.9843 244.0649 0002166 193.4161 166.6648 12.62308503151389
GLOBALSTAR M034         
1 25962U 99062B   24305.88617191 -.00000070  00000+0  17990-3 0  9991
2 25962  51.9869 244.8342 0014232 333.0445  64.8635 11.79435159111454
GLOBALSTAR M029         
1 25963U 99062C   24305.52538362 -.00000039  00000+0  58340-3 0  9994
2 25963  51.9834 354.0056 0002591  33.9311  62.7672 11.99885740141678
GLOBALSTAR M061         
1 25964U 99062D   24305.62133859 -.00000071  00000+0  15784-3 0  9999
2 25964  51.9801  66.5217 0005402 249.9848 123.7011 11.76767764 94273
